{"fetched_at":"2026-07-09T18:17:30.873Z","source":"https://celestrak.org/NORAD/elements/gp.php?NAME=UMBRA&FORMAT=JSON","constellation":"umbra","records":[{"OBJECT_NAME":"UMBRA-07","OBJECT_ID":"2023-174AT","EPOCH":"2026-07-08T17:14:21.572736","CLASSIFICATION_TYPE":"U","MEAN_MOTION":15.09541732,"ECCENTRICITY":0.0002873,"INCLINATION":97.3779,"RA_OF_ASC_NODE":244.6689,"ARG_OF_PERICENTER":35.2924,"MEAN_ANOMALY":324.8495,"EPHEMERIS_TYPE":0,"NORAD_CAT_ID":58297,"ELEMENT_SET_NO":999,"REV_AT_EPOCH":14666,"BSTAR":0.00040281275,"MEAN_MOTION_DOT":0.00006404,"MEAN_MOTION_DDOT":0},{"OBJECT_NAME":"UMBRA-09","OBJECT_ID":"2024-149CB","EPOCH":"2026-07-08T19:33:47.491200","CLASSIFICATION_TYPE":"U","MEAN_MOTION":15.18714157,"ECCENTRICITY":0.00016901,"INCLINATION":97.6968,"RA_OF_ASC_NODE":277.4001,"ARG_OF_PERICENTER":215.5385,"MEAN_ANOMALY":144.5736,"EPHEMERIS_TYPE":0,"NORAD_CAT_ID":60541,"ELEMENT_SET_NO":999,"REV_AT_EPOCH":10400,"BSTAR":0.00048108872,"MEAN_MOTION_DOT":0.0000992,"MEAN_MOTION_DDOT":0},{"OBJECT_NAME":"UMBRA-10","OBJECT_ID":"2024-149CH","EPOCH":"2026-07-08T19:33:08.557632","CLASSIFICATION_TYPE":"U","MEAN_MOTION":15.18720503,"ECCENTRICITY":0.00011958,"INCLINATION":97.697,"RA_OF_ASC_NODE":277.4291,"ARG_OF_PERICENTER":174.7318,"MEAN_ANOMALY":185.3929,"EPHEMERIS_TYPE":0,"NORAD_CAT_ID":60547,"ELEMENT_SET_NO":999,"REV_AT_EPOCH":10401,"BSTAR":0.00049974411,"MEAN_MOTION_DOT":0.00010309,"MEAN_MOTION_DDOT":0},{"OBJECT_NAME":"UMBRA-11","OBJECT_ID":"2025-276CL","EPOCH":"2026-07-08T17:57:48.619296","CLASSIFICATION_TYPE":"U","MEAN_MOTION":15.27598029,"ECCENTRICITY":0.00020127,"INCLINATION":97.419,"RA_OF_ASC_NODE":264.2566,"ARG_OF_PERICENTER":204.1956,"MEAN_ANOMALY":155.9189,"EPHEMERIS_TYPE":0,"NORAD_CAT_ID":66748,"ELEMENT_SET_NO":999,"REV_AT_EPOCH":3378,"BSTAR":0.00058462517,"MEAN_MOTION_DOT":0.00015719,"MEAN_MOTION_DDOT":0},{"OBJECT_NAME":"UMBRA-12","OBJECT_ID":"2026-004J","EPOCH":"2026-07-08T22:35:37.341024","CLASSIFICATION_TYPE":"U","MEAN_MOTION":14.89500319,"ECCENTRICITY":0.00077736,"INCLINATION":97.8021,"RA_OF_ASC_NODE":188.4115,"ARG_OF_PERICENTER":69.7129,"MEAN_ANOMALY":290.4923,"EPHEMERIS_TYPE":0,"NORAD_CAT_ID":67371,"ELEMENT_SET_NO":999,"REV_AT_EPOCH":2654,"BSTAR":0.00034005453,"MEAN_MOTION_DOT":0.00003185,"MEAN_MOTION_DDOT":0}]}
